CCSDS_OMM_VERS = 2.0
CREATION_DATE  = 
ORIGINATOR     = 

OBJECT_NAME    = UNKNOWN
OBJECT_ID      = 
CENTER_NAME    = EARTH
REF_FRAME      = TEME
TIME_SYSTEM    = UTC
MEAN_ELEMENT_THEORY = SGP/SGP4

EPOCH          = 2026-03-20T18:44:49.736544
MEAN_MOTION    = 14.07168385
ECCENTRICITY   = .0076916
INCLINATION    = 71.0372
RA_OF_ASC_NODE = 266.4029
ARG_OF_PERICENTER = 3.0609
MEAN_ANOMALY   = 357.0964

EPHEMERIS_TYPE = 0
CLASSIFICATION_TYPE = U
NORAD_CAT_ID   = 81537
ELEMENT_SET_NO = 999
REV_AT_EPOCH   = 63425
BSTAR          = .17501E-3
MEAN_MOTION_DOT = .255E-5
MEAN_MOTION_DDOT = 0

CCSDS_OMM_VERS = 2.0
CREATION_DATE  = 
ORIGINATOR     = 

OBJECT_NAME    = UNKNOWN
OBJECT_ID      = 
CENTER_NAME    = EARTH
REF_FRAME      = TEME
TIME_SYSTEM    = UTC
MEAN_ELEMENT_THEORY = SGP/SGP4

EPOCH          = 2026-03-20T05:33:44.534880
MEAN_MOTION    = 13.18343872
ECCENTRICITY   = .0256953
INCLINATION    = 99.0705
RA_OF_ASC_NODE = 357.5162
ARG_OF_PERICENTER = 143.8301
MEAN_ANOMALY   = 218.0502

EPHEMERIS_TYPE = 0
CLASSIFICATION_TYPE = U
NORAD_CAT_ID   = 81552
ELEMENT_SET_NO = 999
REV_AT_EPOCH   = 59209
BSTAR          = .14281E-2
MEAN_MOTION_DOT = .631E-5
MEAN_MOTION_DDOT = 0

CCSDS_OMM_VERS = 2.0
CREATION_DATE  = 
ORIGINATOR     = 

OBJECT_NAME    = UNKNOWN
OBJECT_ID      = 
CENTER_NAME    = EARTH
REF_FRAME      = TEME
TIME_SYSTEM    = UTC
MEAN_ELEMENT_THEORY = SGP/SGP4

EPOCH          = 2026-03-15T18:59:20.344416
MEAN_MOTION    = 13.31544644
ECCENTRICITY   = .0247896
INCLINATION    = 67.3038
RA_OF_ASC_NODE = 79.6631
ARG_OF_PERICENTER = 15.5230
MEAN_ANOMALY   = 167.0205

EPHEMERIS_TYPE = 0
CLASSIFICATION_TYPE = U
NORAD_CAT_ID   = 81599
ELEMENT_SET_NO = 999
REV_AT_EPOCH   = 59746
BSTAR          = .33421E-3
MEAN_MOTION_DOT = .128E-5
MEAN_MOTION_DDOT = 0

CCSDS_OMM_VERS = 2.0
CREATION_DATE  = 
ORIGINATOR     = 

OBJECT_NAME    = UNKNOWN
OBJECT_ID      = 
CENTER_NAME    = EARTH
REF_FRAME      = TEME
TIME_SYSTEM    = UTC
MEAN_ELEMENT_THEORY = SGP/SGP4

EPOCH          = 2026-03-19T07:40:29.455104
MEAN_MOTION    = 12.81402213
ECCENTRICITY   = .0144611
INCLINATION    = 56.4328
RA_OF_ASC_NODE = 299.9580
ARG_OF_PERICENTER = 271.8983
MEAN_ANOMALY   = 86.5386

EPHEMERIS_TYPE = 0
CLASSIFICATION_TYPE = U
NORAD_CAT_ID   = 81605
ELEMENT_SET_NO = 999
REV_AT_EPOCH   = 19858
BSTAR          = -.33934E-2
MEAN_MOTION_DOT = -.927E-5
MEAN_MOTION_DDOT = 0

CCSDS_OMM_VERS = 2.0
CREATION_DATE  = 
ORIGINATOR     = 

OBJECT_NAME    = UNKNOWN
OBJECT_ID      = 
CENTER_NAME    = EARTH
REF_FRAME      = TEME
TIME_SYSTEM    = UTC
MEAN_ELEMENT_THEORY = SGP/SGP4

EPOCH          = 2026-03-19T22:05:23.992512
MEAN_MOTION    = 12.38297478
ECCENTRICITY   = .0352919
INCLINATION    = 101.8545
RA_OF_ASC_NODE = 76.8604
ARG_OF_PERICENTER = 328.2864
MEAN_ANOMALY   = 29.7368

EPHEMERIS_TYPE = 0
CLASSIFICATION_TYPE = U
NORAD_CAT_ID   = 81614
ELEMENT_SET_NO = 999
REV_AT_EPOCH   = 55000
BSTAR          = .2779E-1
MEAN_MOTION_DOT = .4457E-4
MEAN_MOTION_DDOT = 0

CCSDS_OMM_VERS = 2.0
CREATION_DATE  = 
ORIGINATOR     = 

OBJECT_NAME    = UNKNOWN
OBJECT_ID      = 
CENTER_NAME    = EARTH
REF_FRAME      = TEME
TIME_SYSTEM    = UTC
MEAN_ELEMENT_THEORY = SGP/SGP4

EPOCH          = 2026-03-20T13:12:49.056192
MEAN_MOTION    = 13.34519039
ECCENTRICITY   = .0766108
INCLINATION    = 65.8278
RA_OF_ASC_NODE = 194.1372
ARG_OF_PERICENTER = 90.7790
MEAN_ANOMALY   = 278.1020

EPHEMERIS_TYPE = 0
CLASSIFICATION_TYPE = U
NORAD_CAT_ID   = 81615
ELEMENT_SET_NO = 999
REV_AT_EPOCH   = 59591
BSTAR          = .5541E-3
MEAN_MOTION_DOT = .1472E-4
MEAN_MOTION_DDOT = 0

CCSDS_OMM_VERS = 2.0
CREATION_DATE  = 
ORIGINATOR     = 

OBJECT_NAME    = UNKNOWN
OBJECT_ID      = 
CENTER_NAME    = EARTH
REF_FRAME      = TEME
TIME_SYSTEM    = UTC
MEAN_ELEMENT_THEORY = SGP/SGP4

EPOCH          = 2026-03-20T07:42:10.370304
MEAN_MOTION    = 12.57614430
ECCENTRICITY   = .0031285
INCLINATION    = 101.2695
RA_OF_ASC_NODE = 254.5527
ARG_OF_PERICENTER = 49.0477
MEAN_ANOMALY   = 311.3300

EPHEMERIS_TYPE = 0
CLASSIFICATION_TYPE = U
NORAD_CAT_ID   = 81617
ELEMENT_SET_NO = 999
REV_AT_EPOCH   = 56537
BSTAR          = .2106E-2
MEAN_MOTION_DOT = .312E-5
MEAN_MOTION_DDOT = 0

CCSDS_OMM_VERS = 2.0
CREATION_DATE  = 
ORIGINATOR     = 

OBJECT_NAME    = UNKNOWN
OBJECT_ID      = 
CENTER_NAME    = EARTH
REF_FRAME      = TEME
TIME_SYSTEM    = UTC
MEAN_ELEMENT_THEORY = SGP/SGP4

EPOCH          = 2026-02-26T01:53:09.671424
MEAN_MOTION    = 14.72174479
ECCENTRICITY   = .0063505
INCLINATION    = 66.9770
RA_OF_ASC_NODE = 318.5702
ARG_OF_PERICENTER = 176.9023
MEAN_ANOMALY   = 183.2505

EPHEMERIS_TYPE = 0
CLASSIFICATION_TYPE = U
NORAD_CAT_ID   = 81624
ELEMENT_SET_NO = 999
REV_AT_EPOCH   = 65079
BSTAR          = .72056E-3
MEAN_MOTION_DOT = .4588E-4
MEAN_MOTION_DDOT = 0

CCSDS_OMM_VERS = 2.0
CREATION_DATE  = 
ORIGINATOR     = 

OBJECT_NAME    = UNKNOWN
OBJECT_ID      = 
CENTER_NAME    = EARTH
REF_FRAME      = TEME
TIME_SYSTEM    = UTC
MEAN_ELEMENT_THEORY = SGP/SGP4

EPOCH          = 2026-03-16T21:07:24.585024
MEAN_MOTION    = 12.57310794
ECCENTRICITY   = .097977
INCLINATION    = 65.8249
RA_OF_ASC_NODE = 299.4762
ARG_OF_PERICENTER = 39.2134
MEAN_ANOMALY   = 327.5840

EPHEMERIS_TYPE = 0
CLASSIFICATION_TYPE = U
NORAD_CAT_ID   = 81640
ELEMENT_SET_NO = 999
REV_AT_EPOCH   = 52191
BSTAR          = .35412E-3
MEAN_MOTION_DOT = .33E-5
MEAN_MOTION_DDOT = 0

CCSDS_OMM_VERS = 2.0
CREATION_DATE  = 
ORIGINATOR     = 

OBJECT_NAME    = UNKNOWN
OBJECT_ID      = 
CENTER_NAME    = EARTH
REF_FRAME      = TEME
TIME_SYSTEM    = UTC
MEAN_ELEMENT_THEORY = SGP/SGP4

EPOCH          = 2026-03-19T16:58:06.085632
MEAN_MOTION    = 13.44514908
ECCENTRICITY   = .0363855
INCLINATION    = 102.1441
RA_OF_ASC_NODE = 352.3088
ARG_OF_PERICENTER = 142.7406
MEAN_ANOMALY   = 251.3047

EPHEMERIS_TYPE = 0
CLASSIFICATION_TYPE = U
NORAD_CAT_ID   = 81652
ELEMENT_SET_NO = 999
REV_AT_EPOCH   = 59168
BSTAR          = .73687E-3
MEAN_MOTION_DOT = .581E-5
MEAN_MOTION_DDOT = 0

CCSDS_OMM_VERS = 2.0
CREATION_DATE  = 
ORIGINATOR     = 

OBJECT_NAME    = UNKNOWN
OBJECT_ID      = 
CENTER_NAME    = EARTH
REF_FRAME      = TEME
TIME_SYSTEM    = UTC
MEAN_ELEMENT_THEORY = SGP/SGP4

EPOCH          = 2026-03-19T08:43:57.135936
MEAN_MOTION    = 14.48602072
ECCENTRICITY   = .0014235
INCLINATION    = 74.0407
RA_OF_ASC_NODE = 215.6516
ARG_OF_PERICENTER = 125.6142
MEAN_ANOMALY   = 234.6346

EPHEMERIS_TYPE = 0
CLASSIFICATION_TYPE = U
NORAD_CAT_ID   = 81667
ELEMENT_SET_NO = 999
REV_AT_EPOCH   = 47063
BSTAR          = .53305E-3
MEAN_MOTION_DOT = .1981E-4
MEAN_MOTION_DDOT = 0

CCSDS_OMM_VERS = 2.0
CREATION_DATE  = 
ORIGINATOR     = 

OBJECT_NAME    = UNKNOWN
OBJECT_ID      = 
CENTER_NAME    = EARTH
REF_FRAME      = TEME
TIME_SYSTEM    = UTC
MEAN_ELEMENT_THEORY = SGP/SGP4

EPOCH          = 2026-03-18T13:09:48.074112
MEAN_MOTION    = 14.10176281
ECCENTRICITY   = .0022734
INCLINATION    = 66.8211
RA_OF_ASC_NODE = 122.9693
ARG_OF_PERICENTER = 169.7562
MEAN_ANOMALY   = 339.7280

EPHEMERIS_TYPE = 0
CLASSIFICATION_TYPE = U
NORAD_CAT_ID   = 81674
ELEMENT_SET_NO = 999
REV_AT_EPOCH   = 62722
BSTAR          = .64002E-3
MEAN_MOTION_DOT = .1056E-4
MEAN_MOTION_DDOT = 0

CCSDS_OMM_VERS = 2.0
CREATION_DATE  = 
ORIGINATOR     = 

OBJECT_NAME    = UNKNOWN
OBJECT_ID      = 
CENTER_NAME    = EARTH
REF_FRAME      = TEME
TIME_SYSTEM    = UTC
MEAN_ELEMENT_THEORY = SGP/SGP4

EPOCH          = 2026-03-20T06:47:18.428352
MEAN_MOTION    = 14.58152114
ECCENTRICITY   = .002231
INCLINATION    = 81.2181
RA_OF_ASC_NODE = 192.4451
ARG_OF_PERICENTER = 359.7848
MEAN_ANOMALY   = 0.3335

EPHEMERIS_TYPE = 0
CLASSIFICATION_TYPE = U
NORAD_CAT_ID   = 81683
ELEMENT_SET_NO = 999
REV_AT_EPOCH   = 65007
BSTAR          = .58457E-3
MEAN_MOTION_DOT = .2717E-4
MEAN_MOTION_DDOT = 0

CCSDS_OMM_VERS = 2.0
CREATION_DATE  = 
ORIGINATOR     = 

OBJECT_NAME    = UNKNOWN
OBJECT_ID      = 
CENTER_NAME    = EARTH
REF_FRAME      = TEME
TIME_SYSTEM    = UTC
MEAN_ELEMENT_THEORY = SGP/SGP4

EPOCH          = 2026-03-18T14:01:45.422400
MEAN_MOTION    = 12.26090685
ECCENTRICITY   = .0378927
INCLINATION    = 101.1032
RA_OF_ASC_NODE = 133.5446
ARG_OF_PERICENTER = 260.3042
MEAN_ANOMALY   = 95.5030

EPHEMERIS_TYPE = 0
CLASSIFICATION_TYPE = U
NORAD_CAT_ID   = 81693
ELEMENT_SET_NO = 999
REV_AT_EPOCH   = 97951
BSTAR          = .10849E-1
MEAN_MOTION_DOT = .1492E-4
MEAN_MOTION_DDOT = 0

CCSDS_OMM_VERS = 2.0
CREATION_DATE  = 
ORIGINATOR     = 

OBJECT_NAME    = UNKNOWN
OBJECT_ID      = 
CENTER_NAME    = EARTH
REF_FRAME      = TEME
TIME_SYSTEM    = UTC
MEAN_ELEMENT_THEORY = SGP/SGP4

EPOCH          = 2026-03-17T13:34:27.812352
MEAN_MOTION    = 14.40905900
ECCENTRICITY   = .0002964
INCLINATION    = 71.0015
RA_OF_ASC_NODE = 179.8712
ARG_OF_PERICENTER = 49.6919
MEAN_ANOMALY   = 310.4476

EPHEMERIS_TYPE = 0
CLASSIFICATION_TYPE = U
NORAD_CAT_ID   = 81745
ELEMENT_SET_NO = 999
REV_AT_EPOCH   = 64340
BSTAR          = .59569E-3
MEAN_MOTION_DOT = .1862E-4
MEAN_MOTION_DDOT = 0

CCSDS_OMM_VERS = 2.0
CREATION_DATE  = 
ORIGINATOR     = 

OBJECT_NAME    = UNKNOWN
OBJECT_ID      = 
CENTER_NAME    = EARTH
REF_FRAME      = TEME
TIME_SYSTEM    = UTC
MEAN_ELEMENT_THEORY = SGP/SGP4

EPOCH          = 2026-03-19T15:03:11.954016
MEAN_MOTION    = 14.42347016
ECCENTRICITY   = .0012941
INCLINATION    = 82.9195
RA_OF_ASC_NODE = 143.9039
ARG_OF_PERICENTER = 299.9771
MEAN_ANOMALY   = 60.0138

EPHEMERIS_TYPE = 0
CLASSIFICATION_TYPE = U
NORAD_CAT_ID   = 81775
ELEMENT_SET_NO = 999
REV_AT_EPOCH   = 63923
BSTAR          = .12237E-2
MEAN_MOTION_DOT = .4063E-4
MEAN_MOTION_DDOT = 0

